IRIDIUM 119             
1 42959U 17061E   23290.43724858  .00000619  00000+0  21399-3 0  9993
2 42959  86.3945  72.1819 0001808  84.9227 275.2175 14.34220149315247
IRIDIUM 107             
1 42960U 17061F   23290.45626954  .00000638  00000+0  22062-3 0  9994
2 42960  86.3945  72.1894 0001798  92.2661 267.8741 14.34223584315257
IRIDIUM 132             
1 42961U 17061G   23290.46261986  .00000521  00000+0  17908-3 0  9990
2 42961  86.3944  72.1728 0001878  89.3499 270.7912 14.34220120315254
IRIDIUM 136             
1 42962U 17061H   23290.14548857  .00000028  00000+0  30966-5 0  9994
2 42962  86.3945  72.3073 0002074  84.4326 275.7106 14.34216584315221
IRIDIUM 139             
1 42963U 17061J   23290.43091094  .00000259  00000+0  85325-4 0  9997
2 42963  86.3944  72.2348 0001824  92.0283 268.1122 14.34217944315274
IRIDIUM 125             
1 42964U 17061K   23290.48798781  .00000601  00000+0  20735-3 0  9994
2 42964  86.3948  72.2541 0001830  87.7082 272.4323 14.34219506315298
IRIDIUM 135             
1 43070U 17083A   23290.46211851  .00000571  00000+0  19680-3 0  9996
2 43070  86.4027   8.9697 0002311 101.4931 258.6524 14.34219309304586
IRIDIUM 138             
1 43071U 17083B   23290.48748408  .00000583  00000+0  20115-3 0  9990
2 43071  86.4016   8.7071 0002009  89.4682 270.6744 14.34218808304571
